{
  "norad_id": 28117,
  "name": "UFO 11 (USA 174)",
  "history": [
    {
      "epoch": "2026-03-28T21:17:38.519232Z",
      "apogee_km": 35799.610977389115,
      "perigee_km": 35773.308701880545,
      "latitude_deg": -1.0606261564327726,
      "longitude_deg": 75.33722871150252,
      "height_km": 35794.517404675076,
      "semi_major_axis_km": 42164.59683963483,
      "eccentricity": 0.0003119,
      "inclination_deg": 8.886,
      "raan_deg": 34.2115,
      "arg_perigee_deg": 316.2968,
      "mean_anomaly_deg": 230.627,
      "mean_motion_rev_day": 1.00272267
    }
  ]
}